API VERSION: 1.0
API SOURCE: NASA/JPL Horizons API

*******************************************************************************
JPL/HORIZONS                  523599 (2003 RM)             2024-Jun-26 07:46:05
Rec #:  523599 (+COV) Soln.date: 2024-Jan-07_05:32:52    # obs: 372 (2003-2023)
 
IAU76/J2000 helio. ecliptic osc. elements (au, days, deg., period=Julian yrs):
 
  EPOCH=  2458355.5 ! 2018-Aug-25.00 (TDB)         Residual RMS= .1123
   EC= .6010246082347365   QR= 1.165457417942952   TP= 2458304.2084838189
   OM= 336.7024489030209   W=  324.5181850182897   IN= 10.85367654694148
   A= 2.92112606942096     MA= 10.125679107548     ADIST= 4.676794720898968
   PER= 4.99268            N= .197414307           ANGMOM= .023497878
   DAN= 1.25279            DDN= 3.65448            L= 301.7080075
   B= -6.2748822           MOID= .180498           TP= 2018-Jul-04.7084838189
 
Asteroid physical parameters (km, seconds, rotational period in hours):
   GM= n.a.                RAD= n.a.               ROTPER= n.a.
   H= 19.64                G= .150                 B-V= n.a.
                           ALBEDO= n.a.            STYP= n.a.

Asteroid non-gravitational force model (AMRAT= m^2/kg;A1,A2,A3=au/d^2;R0=au):
   AMRAT=  0.
   A1= 0.                  A2= 3.286934806965E-12  A3= 0.
 Standard model:
   ALN=  .1112620426   NK=  4.6142   NM=  2.15     NN=  5.093    R0=  2.808

ASTEROID comments: 
1: soln ref.= JPL#74, OCC=0
2: source=ORB
*******************************************************************************


*******************************************************************************
Ephemeris / WWW_USER Wed Jun 26 07:46:05 2024 Pasadena, USA      / Horizons    
*******************************************************************************
Target body name: 523599 (2003 RM)                {source: JPL#74}
Center body name: Earth (399)                     {source: DE441}
Center-site name: GEOCENTRIC
*******************************************************************************
Start time      : A.D. 2024-Jan-01 00:00:00.0000 UT      
Stop  time      : A.D. 2044-Jan-01 00:00:00.0000 UT      
Step-size       : 1440 minutes
*******************************************************************************
Target pole/equ : undefined
Target radii    : undefined                                                    
Center geodetic : 0.0, 0.0, -6378.137             {E-lon(deg),Lat(deg),Alt(km)}
Center cylindric: 0.0, 0.0, 0.0                   {E-lon(deg),Dxy(km),Dz(km)}
Center pole/equ : ITRF93                          {East-longitude positive}
Center radii    : 6378.137, 6378.137, 6356.752 km {Equator_a, b, pole_c}       
Target primary  : Sun
Vis. interferer : MOON (R_eq= 1737.400) km        {source: DE441}
Rel. light bend : Sun                             {source: DE441}
Rel. lght bnd GM: 1.3271E+11 km^3/s^2                                          
Small-body perts: Yes                             {source: SB441-N16}
Atmos refraction: NO (AIRLESS)
RA format       : HMS
Time format     : CAL 
Calendar mode   : Mixed Julian/Gregorian
EOP file        : eop.240624.p240917                                           
EOP coverage    : DATA-BASED 1962-JAN-20 TO 2024-JUN-24. PREDICTS-> 2024-SEP-16
Units conversion: 1 au= 149597870.700 km, c= 299792.458 km/s, 1 day= 86400.0 s 
Table cut-offs 1: Elevation (-90.0deg=NO ),Airmass (>38.000=NO), Daylight (NO )
Table cut-offs 2: Solar elongation (  0.0,180.0=NO ),Local Hour Angle( 0.0=NO )
Table cut-offs 3: RA/DEC angular rate (     0.0=NO )                           
*******************************************************************************
Initial IAU76/J2000 heliocentric ecliptic osculating elements (au, days, deg.):
  EPOCH=  2458355.5 ! 2018-Aug-25.00 (TDB)         Residual RMS= .1123         
   EC= .6010246082347365   QR= 1.165457417942952   TP= 2458304.2084838189      
   OM= 336.7024489030209   W=  324.5181850182897   IN= 10.85367654694148       
  Equivalent ICRF heliocentric cartesian coordinates (au, au/d):
   X= 1.289593500594573E+00  Y=-2.777410041652985E-01  Z=-6.792469303039234E-02
  VX= 8.988567103344593E-03 VY= 1.322912716371789E-02 VZ= 9.536132355472498E-03
Asteroid physical parameters (km, seconds, rotational period in hours):        
   GM= n.a.                RAD= n.a.               ROTPER= n.a.                
   H= 19.64                G= .150                 B-V= n.a.                   
                           ALBEDO= n.a.            STYP= n.a.                  
Asteroid non-gravitational force model (AMRAT= m^2/kg;A1,A2,A3=au/d^2;R0=au):  
   AMRAT=  0.                                                                  
   A1= 0.                  A2= 3.286934806965E-12  A3= 0.                      
 Standard model:                                                               
   ALN=  .1112620426   NK=  4.6142   NM=  2.15     NN=  5.093    R0=  2.808    
**********************************************************************************************************************************************
 Date__(UT)__HR:MN     R.A._____(ICRF)_____DEC  dRA*cosD d(DEC)/dt    APmag   S-brt             delta      deldot     S-O-T /r     S-T-O  Cnst
**********************************************************************************************************************************************
$$SOE
 2032-Jun-21 00:00     10 04 11.49 +09 47 51.2  29.77711  -13.4704   25.826    n.a.  3.60557242560442  12.9373040   59.9062 /T   15.8546   Leo
 2032-Jun-22 00:00     10 05 00.18 +09 42 26.9  30.17150  -13.6410   25.824    n.a.  3.61298487619439  12.7299187   59.1721 /T   15.7610   Leo
 2032-Jun-23 00:00     10 05 49.50 +09 36 58.6  30.56096  -13.8109   25.821    n.a.  3.62027688419336  12.5202534   58.4411 /T   15.6650   Leo
 2032-Jun-24 00:00     10 06 39.43 +09 31 26.2  30.94582  -13.9803   25.818    n.a.  3.62744715333097  12.3083685   57.7131 /T   15.5667   Leo
 2032-Jun-25 00:00     10 07 29.97 +09 25 49.8  31.32641  -14.1492   25.815    n.a.  3.63449440227528  12.0942544   56.9880 /T   15.4660   Leo
 2032-Jun-26 00:00     10 08 21.11 +09 20 09.3  31.70302  -14.3178   25.812    n.a.  3.64141732415225  11.8778339   56.2657 /T   15.3629   Leo
 2032-Jun-27 00:00     10 09 12.84 +09 14 24.7  32.07587  -14.4861   25.809    n.a.  3.64821455202523  11.6589804   55.5463 /T   15.2576   Leo
 2032-Jun-28 00:00     10 10 05.17 +09 08 36.2  32.44506  -14.6540   25.805    n.a.  3.65488463826898  11.4375462   54.8296 /T   15.1501   Leo
 2032-Jun-29 00:00     10 10 58.07 +09 02 43.6  32.81063  -14.8216   25.801    n.a.  3.66142605107308  11.2133920   54.1156 /T   15.0402   Leo
 2032-Jun-30 00:00     10 11 51.54 +08 56 47.0  33.17254  -14.9889   25.797    n.a.  3.66783718585825  10.9864078   53.4043 /T   14.9282   Leo
 2032-Jul-01 00:00     10 12 45.59 +08 50 46.4  33.53072  -15.1557   25.793    n.a.  3.67411638608858  10.7565245   52.6956 /T   14.8140   Leo
 2032-Jul-02 00:00     10 13 40.20 +08 44 41.8  33.88503  -15.3220   25.789    n.a.  3.68026196769006  10.5237158   51.9896 /T   14.6977   Leo
 2032-Jul-03 00:00     10 14 35.36 +08 38 33.2  34.23538  -15.4878   25.784    n.a.  3.68627224296797  10.2879947   51.2861 /T   14.5792   Leo
 2032-Jul-04 00:00     10 15 31.07 +08 32 20.7  34.58166  -15.6530   25.780    n.a.  3.69214554197627  10.0494086   50.5852 /T   14.4587   Leo
 2032-Jul-05 00:00     10 16 27.32 +08 26 04.2  34.92377  -15.8175   25.775    n.a.  3.69788023074940   9.8080339   49.8869 /T   14.3361   Leo
 2032-Jul-06 00:00     10 17 24.11 +08 19 43.7  35.26163  -15.9813   25.770    n.a.  3.70347472645633   9.5639704   49.1911 /T   14.2114   Leo
 2032-Jul-07 00:00     10 18 21.43 +08 13 19.4  35.59519  -16.1445   25.765    n.a.  3.70892750962775   9.3173368   48.4978 /T   14.0848   Leo
 2032-Jul-08 00:00     10 19 19.26 +08 06 51.1  35.92442  -16.3069   25.759    n.a.  3.71423713349802   9.0682655   47.8070 /T   13.9562   Leo
 2032-Jul-09 00:00     10 20 17.61 +08 00 18.9  36.24932  -16.4685   25.753    n.a.  3.71940223045886   8.8168973   47.1186 /T   13.8257   Leo
 2032-Jul-10 00:00     10 21 16.46 +07 53 42.9  36.56989  -16.6294   25.748    n.a.  3.72442151575207   8.5633775   46.4327 /T   13.6932   Leo
 2032-Jul-11 00:00     10 22 15.82 +07 47 03.0  36.88619  -16.7894   25.742    n.a.  3.72929378879400   8.3078519   45.7492 /T   13.5589   Leo
 2032-Jul-12 00:00     10 23 15.66 +07 40 19.3  37.19826  -16.9488   25.735    n.a.  3.73401793281562   8.0504647   45.0681 /T   13.4228   Leo
 2032-Jul-13 00:00     10 24 15.99 +07 33 31.8  37.50617  -17.1073   25.729    n.a.  3.73859291369904   7.7913578   44.3894 /T   13.2849   Leo
 2032-Jul-14 00:00     10 25 16.80 +07 26 40.4  37.81001  -17.2651   25.723    n.a.  3.74301777892603   7.5306722   43.7130 /T   13.1452   Leo
 2032-Jul-15 00:00     10 26 18.07 +07 19 45.3  38.10986  -17.4222   25.716    n.a.  3.74729165739901   7.2685494   43.0389 /T   13.0038   Leo
 2032-Jul-16 00:00     10 27 19.82 +07 12 46.4  38.40582  -17.5786   25.709    n.a.  3.75141376054851   7.0051338   42.3672 /T   12.8607   Leo
 2032-Jul-17 00:00     10 28 22.02 +07 05 43.8  38.69803  -17.7343   25.702    n.a.  3.75538338457837   6.7405747   41.6977 /T   12.7160   Leo
 2032-Jul-18 00:00     10 29 24.67 +06 58 37.4  38.98662  -17.8893   25.694    n.a.  3.75919991287855   6.4750242   41.0304 /T   12.5695   Leo
 2032-Jul-19 00:00     10 30 27.77 +06 51 27.3  39.27178  -18.0437   25.687    n.a.  3.76286281655073   6.2086325   40.3653 /T   12.4215   Leo
 2032-Jul-20 00:00     10 31 31.31 +06 44 13.5  39.55375  -18.1976   25.679    n.a.  3.76637164981823   5.9415346   39.7024 /T   12.2719   Leo
 2032-Jul-21 00:00     10 32 35.28 +06 36 56.0  39.83280  -18.3511   25.671    n.a.  3.76972603639723   5.6738324   39.0417 /T   12.1207   Leo
 2032-Jul-22 00:00     10 33 39.69 +06 29 34.9  40.10925  -18.5041   25.663    n.a.  3.77292564370799   5.4055718   38.3830 /T   11.9680   Leo
 2032-Jul-23 00:00     10 34 44.52 +06 22 10.0  40.38343  -18.6569   25.655    n.a.  3.77597014507790   5.1367254   37.7263 /T   11.8138   Leo
 2032-Jul-24 00:00     10 35 49.78 +06 14 41.5  40.65560  -18.8094   25.646    n.a.  3.77885917553349   4.8671891   37.0717 /T   11.6581   Sex
